{"type": "FeatureCollection", "features": [ {"type": "Feature", "properties": {"norad_id": 66949, "name": "STARLINK-36096", "group": "last-30-days", "lat": 17.24044061545561, "lon": 154.15646522625642, "alt_km": 383.88251244556886, "timestamp": "2025-12-25T07:41:08.451062+00:00", "meta": {"OBJECT_NAME": "STARLINK-36096", "OBJECT_ID": "2025-286AA", "EPOCH": "2025-12-24T22:00:03.000096", "MEAN_MOTION": 15.62379279, "ECCENTRICITY": 0.00012604, "INCLINATION": 53.1598, "RA_OF_ASC_NODE": 349.5758, "ARG_OF_PERICENTER": 80.5491, "MEAN_ANOMALY": 327.8777, "EPHEMERIS_TYPE": 0, "CLASSIFICATION_TYPE": "U", "NORAD_CAT_ID": 66949, "ELEMENT_SET_NO": 999, "REV_AT_EPOCH": 394, "BSTAR": -0.024981505, "MEAN_MOTION_DOT": -0.01983603, "MEAN_MOTION_DDOT": 0}, "tle": {"line1": "1 66949U 25286AA  25358.91670139 -.01983603  00000+0 -24982-1 0  9993", "line2": "2 66949  53.1598 349.5758 0001260  80.5491 327.8777 15.62379279  3942"}}, "geometry": {"type": "Point", "coordinates": [154.15646522625642, 17.24044061545561]}}, {"type": "Feature", "properties": {"norad_id": 66950, "name": "STARLINK-36111", "group": "last-30-days", "lat": 14.2401812593541, "lon": 156.63305462162836, "alt_km": 384.3813885413283, "timestamp": "2025-12-25T07:41:08.451074+00:00", "meta": {"OBJECT_NAME": "STARLINK-36111", "OBJECT_ID": "2025-286AB", "EPOCH": "2025-12-24T22:00:03.000096", "MEAN_MOTION": 15.62377465, "ECCENTRICITY": 0.00012936, "INCLINATION": 53.1596, "RA_OF_ASC_NODE": 349.5673, "ARG_OF_PERICENTER": 81.7876, "MEAN_ANOMALY": 330.4723, "EPHEMERIS_TYPE": 0, "CLASSIFICATION_TYPE": "U", "NORAD_CAT_ID": 66950, "ELEMENT_SET_NO": 999, "REV_AT_EPOCH": 394, "BSTAR": -0.024925096, "MEAN_MOTION_DOT": -0.01979568, "MEAN_MOTION_DDOT": 0}, "tle": {"line1": "1 66950U 25286AB  25358.91670139 -.01979568  00000+0 -24925-1 0  9997", "line2": "2 66950  53.1596 349.5673 0001293  81.7876 330.4723 15.62377465  3940"}}, "geometry": {"type": "Point", "coordinates": [156.63305462162836, 14.2401812593541]}}, {"type": "Feature", "properties": {"norad_id": 66951, "name": "STARLINK-35999", "group": "last-30-days", "lat": 12.730637189364627, "lon": 157.84583979088944, "alt_km": 384.6126027981936, "timestamp": "2025-12-25T07:41:08.451084+00:00", "meta": {"OBJECT_NAME": "STARLINK-35999", "OBJECT_ID": "2025-286AC", "EPOCH": "2025-12-24T22:00:03.000096", "MEAN_MOTION": 15.6237502, "ECCENTRICITY": 0.00012425, "INCLINATION": 53.1596, "RA_OF_ASC_NODE": 349.5633, "ARG_OF_PERICENTER": 83.8458, "MEAN_ANOMALY": 330.33, "EPHEMERIS_TYPE": 0, "CLASSIFICATION_TYPE": "U", "NORAD_CAT_ID": 66951, "ELEMENT_SET_NO": 999, "REV_AT_EPOCH": 394, "BSTAR": -0.024829284, "MEAN_MOTION_DOT": -0.01972676, "MEAN_MOTION_DDOT": 0}, "tle": {"line1": "1 66951U 25286AC  25358.91670139 -.01972676  00000+0 -24829-1 0  9994", "line2": "2 66951  53.1596 349.5633 0001242  83.8458 330.3300 15.62375020  3945"}}, "geometry": {"type": "Point", "coordinates": [157.84583979088944, 12.730637189364627]}}, {"type": "Feature", "properties": {"norad_id": 66952, "name": "STARLINK-36122", "group": "last-30-days", "lat": 15.744037662233405, "lon": 155.4035553205945, "alt_km": 384.07278539663275, "timestamp": "2025-12-25T07:41:08.451094+00:00", "meta": {"OBJECT_NAME": "STARLINK-36122", "OBJECT_ID": "2025-286AD", "EPOCH": "2025-12-24T22:00:03.000096", "MEAN_MOTION": 15.62373538, "ECCENTRICITY": 0.00013553, "INCLINATION": 53.1598, "RA_OF_ASC_NODE": 349.5713, "ARG_OF_PERICENTER": 84.3714, "MEAN_ANOMALY": 325.9711, "EPHEMERIS_TYPE": 0, "CLASSIFICATION_TYPE": "U", "NORAD_CAT_ID": 66952, "ELEMENT_SET_NO": 999, "REV_AT_EPOCH": 394, "BSTAR": -0.024823119, "MEAN_MOTION_DOT": -0.01972225, "MEAN_MOTION_DDOT": 0}, "tle": {"line1": "1 66952U 25286AD  25358.91670139 -.01972225  00000+0 -24823-1 0  9999", "line2": "2 66952  53.1598 349.5713 0001355  84.3714 325.9711 15.62373538  3941"}}, "geometry": {"type": "Point", "coordinates": [155.4035553205945, 15.744037662233405]}}, {"type": "Feature", "properties": {"norad_id": 66953, "name": "HULIANWANG DIGUI-114", "group": "last-30-days", "lat": 24.172029079070807, "lon": 160.00652528667976, "alt_km": 1005.8661557378864, "timestamp": "2025-12-25T07:41:08.451104+00:00", "meta": {"OBJECT_NAME": "HULIANWANG DIGUI-114", "OBJECT_ID": "2025-287A", "EPOCH": "2025-12-20T09:09:14.655168", "MEAN_MOTION": 13.66161866, "ECCENTRICITY": 0.00096738, "INCLINATION": 86.496, "RA_OF_ASC_NODE": 343.3747, "ARG_OF_PERICENTER": 185.0352, "MEAN_ANOMALY": 175.071, "EPHEMERIS_TYPE": 0, "CLASSIFICATION_TYPE": "U", "NORAD_CAT_ID": 66953, "ELEMENT_SET_NO": 999, "REV_AT_EPOCH": 157, "BSTAR": 3.033618e-06, "MEAN_MOTION_DOT": 1.9e-07, "MEAN_MOTION_DDOT": 0}, "tle": {"line1": "1 66953U 25287A   25354.38141962  .00000019  00000+0  30336-5 0  9995", "line2": "2 66953  86.4960 343.3747 0009673 185.0352 175.0710 13.66161866  1572"}}, "geometry": {"type": "Point", "coordinates": [160.00652528667976, 24.172029079070807]}}, {"type": "Feature", "properties": {"norad_id": 66954, "name": "HULIANWANG DIGUI-115", "group": "last-30-days", "lat": 37.08570196454563, "lon": 158.9456888243598, "alt_km": 1018.1387658296308, "timestamp": "2025-12-25T07:41:08.451117+00:00", "meta": {"OBJECT_NAME": "HULIANWANG DIGUI-115", "OBJECT_ID": "2025-287B", "EPOCH": "2025-12-24T22:10:56.489088", "MEAN_MOTION": 13.63539042, "ECCENTRICITY": 0.0003385, "INCLINATION": 86.5036, "RA_OF_ASC_NODE": 341.7372, "ARG_OF_PERICENTER": 109.9724, "MEAN_ANOMALY": 250.1798, "EPHEMERIS_TYPE": 0, "CLASSIFICATION_TYPE": "U", "NORAD_CAT_ID": 66954, "ELEMENT_SET_NO": 999, "REV_AT_EPOCH": 219, "BSTAR": 8.442119e-06, "MEAN_MOTION_DOT": 2.3e-07, "MEAN_MOTION_DDOT": 0}, "tle": {"line1": "1 66954U 25287B   25358.92426492  .00000023  00000+0  84421-5 0  9993", "line2": "2 66954  86.5036 341.7372 0003385 109.9724 250.1798 13.63539042  2198"}}, "geometry": {"type": "Point", "coordinates": [158.9456888243598, 37.08570196454563]}}, {"type": "Feature", "properties": {"norad_id": 66955, "name": "HULIANWANG DIGUI-116", "group": "last-30-days", "lat": 23.802605630299034, "lon": 160.01734964982856, "alt_km": 1019.3826670859844, "timestamp": "2025-12-25T07:41:08.451127+00:00", "meta": {"OBJECT_NAME": "HULIANWANG DIGUI-116", "OBJECT_ID": "2025-287C", "EPOCH": "2025-12-24T23:52:55.515936", "MEAN_MOTION": 13.64194122, "ECCENTRICITY": 0.00016332, "INCLINATION": 86.4919, "RA_OF_ASC_NODE": 341.6856, "ARG_OF_PERICENTER": 94.3011, "MEAN_ANOMALY": 265.8333, "EPHEMERIS_TYPE": 0, "CLASSIFICATION_TYPE": "U", "NORAD_CAT_ID": 66955, "ELEMENT_SET_NO": 999, "REV_AT_EPOCH": 220, "BSTAR": 0.0001652864, "MEAN_MOTION_DOT": 1.48e-06, "MEAN_MOTION_DDOT": 0}, "tle": {"line1": "1 66955U 25287C   25358.99508699  .00000148  00000+0  16529-3 0  9991", "line2": "2 66955  86.4919 341.6856 0001633  94.3011 265.8333 13.64194122  2201"}}, "geometry": {"type": "Point", "coordinates": [160.01734964982856, 23.802605630299034]}}, {"type": "Feature", "properties": {"norad_id": 66956, "name": "HULIANWANG DIGUI-117", "group": "last-30-days", "lat": -24.233879885129063, "lon": 163.15557755289635, "alt_km": 1009.2720662144975, "timestamp": "2025-12-25T07:41:08.451137+00:00", "meta": {"OBJECT_NAME": "HULIANWANG DIGUI-117", "OBJECT_ID": "2025-287D", "EPOCH": "2025-12-18T14:55:12.079776", "MEAN_MOTION": 13.67770338, "ECCENTRICITY": 0.00076767, "INCLINATION": 86.4971, "RA_OF_ASC_NODE": 344.0126, "ARG_OF_PERICENTER": 176.3616, "MEAN_ANOMALY": 183.76, "EPHEMERIS_TYPE": 0, "CLASSIFICATION_TYPE": "U", "NORAD_CAT_ID": 66956, "ELEMENT_SET_NO": 999, "REV_AT_EPOCH": 133, "BSTAR": 1.0922436e-05, "MEAN_MOTION_DOT": 2.6e-07, "MEAN_MOTION_DDOT": 0}, "tle": {"line1": "1 66956U 25287D   25352.62166759  .00000026  00000+0  10922-4 0  9990", "line2": "2 66956  86.4971 344.0126 0007676 176.3616 183.7600 13.67770338  1332"}}, "geometry": {"type": "Point", "coordinates": [163.15557755289635, -24.233879885129063]}}, {"type": "Feature", "properties": {"norad_id": 66957, "name": "HULIANWANG DIGUI-118", "group": "last-30-days", "lat": -24.666471927407205, "lon": 163.1840123224182, "alt_km": 1011.2830196521827, "timestamp": "2025-12-25T07:41:08.451147+00:00", "meta": {"OBJECT_NAME": "HULIANWANG DIGUI-118", "OBJECT_ID": "2025-287E", "EPOCH": "2025-12-21T00:50:13.849728", "MEAN_MOTION": 13.6751011, "ECCENTRICITY": 0.00054729, "INCLINATION": 86.4946, "RA_OF_ASC_NODE": 343.1304, "ARG_OF_PERICENTER": 170.9065, "MEAN_ANOMALY": 189.2194, "EPHEMERIS_TYPE": 0, "CLASSIFICATION_TYPE": "U", "NORAD_CAT_ID": 66957, "ELEMENT_SET_NO": 999, "REV_AT_EPOCH": 166, "BSTAR": 0.00013223305, "MEAN_MOTION_DOT": 1.28e-06, "MEAN_MOTION_DDOT": 0}, "tle": {"line1": "1 66957U 25287E   25355.03488252  .00000128  00000+0  13223-3 0  9993", "line2": "2 66957  86.4946 343.1304 0005472 170.9065 189.2194 13.67510110  1668"}}, "geometry": {"type": "Point", "coordinates": [163.1840123224182, -24.666471927407205]}}, {"type": "Feature", "properties": {"norad_id": 66958, "name": "CZ-6A R/B", "group": "last-30-days", "lat": -38.17997756352982, "lon": -21.435240566827456, "alt_km": 933.9883130806556, "timestamp": "2025-12-25T07:41:08.451159+00:00", "meta": {"OBJECT_NAME": "CZ-6A R/B", "OBJECT_ID": "2025-287F", "EPOCH": "2025-12-24T21:32:19.967712", "MEAN_MOTION": 13.94921413, "ECCENTRICITY": 0.01071296, "INCLINATION": 86.5065, "RA_OF_ASC_NODE": 341.4787, "ARG_OF_PERICENTER": 65.6108, "MEAN_ANOMALY": 295.6201, "EPHEMERIS_TYPE": 0, "CLASSIFICATION_TYPE": "U", "NORAD_CAT_ID": 66958, "ELEMENT_SET_NO": 999, "REV_AT_EPOCH": 223, "BSTAR": 3.8656345e-05, "MEAN_MOTION_DOT": 7.3e-07, "MEAN_MOTION_DDOT": 0}, "tle": {"line1": "1 66958U 25287F   25358.89745333  .00000073  00000+0  38656-4 0  9994", "line2": "2 66958  86.5065 341.4787 0107129  65.6108 295.6201 13.94921413  2235"}}, "geometry": {"type": "Point", "coordinates": [-21.435240566827456, -38.17997756352982]}}]}